IRIDIUM 921             
1 24873U 97034E   25003.74913586  .00222057  00000+0  13076-2 0  9996
2 24873  86.3662 186.6723 0001421  17.2936 342.8387 15.77595946506303
IRIDIUM 26              
1 24903U 97043A   25003.92505370  .00001151  00000+0  38290-3 0  9994
2 24903  86.3982 179.5552 0001766  88.8487 271.2913 14.36890421433152
IRIDIUM 22              
1 24907U 97043E   25003.99938509  .00001004  00000+0  34080-3 0  9999
2 24907  86.3985 182.9178 0002009  90.8469 269.2958 14.35731490433206
DUMMY MASS 1            
1 24925U 97048A   25003.59979716  .00001063  00000+0  11643-3 0  9990
2 24925  86.3348 211.3553 0007562  28.0398 332.1233 14.86713600480674
DUMMY MASS 2            
1 24926U 97048B   25003.46729948  .00001123  00000+0  12389-3 0  9992
2 24926  86.3349 212.9933 0008759  36.6310 323.5512 14.86468060480438
IRIDIUM 29              
1 24944U 97051A   25003.86923623  .00001002  00000+0  33714-3 0  9997
2 24944  86.3961 212.7450 0002185  87.3569 272.7878 14.36197738429682
IRIDIUM 33              
1 24946U 97051C   25003.81435867  .00000651  00000+0  22314-3 0  9995
2 24946  86.3877 212.0168 0005950 250.3178 109.7377 14.34709196429172
IRIDIUM 28              
1 24948U 97051E   25003.81001212  .00000980  00000+0  32328-3 0  9991
2 24948  86.3968 210.3801 0001549  89.0836 271.0539 14.37141392430231
